{"type":"FeatureCollection","features":[{"type":"Feature","properties":{},"geometry":{"type":"GeometryCollection","geometries":[{"type":"LineString","coordinates":[[175.183325,-40.58458],[175.187708,-40.585525],[175.19635,-40.587378],[175.202519,-40.588931],[175.205811,-40.57945],[175.247926,-40.5919],[175.255279,-40.577309],[175.249854,-40.57569],[175.251276,-40.572507],[175.25165,-40.570461],[175.253895,-40.567562],[175.260445,-40.56836],[175.260421,-40.568232],[175.261686,-40.568528],[175.262176,-40.568673],[175.262187,-40.568658],[175.263678,-40.569142],[175.263471,-40.568224],[175.263599,-40.567776],[175.263966,-40.567194],[175.264094,-40.566918],[175.264304,-40.567009],[175.264345,-40.566906],[175.265164,-40.566776],[175.26553,-40.566649],[175.26607,-40.567339],[175.267544,-40.568539],[175.268106,-40.568632],[175.268896,-40.566699],[175.271041,-40.567617],[175.272909,-40.564914],[175.287186,-40.570491],[175.28952,-40.569407],[175.290807,-40.56938],[175.292332,-40.56825],[175.297947,-40.572052],[175.299841,-40.571037],[175.328743,-40.595332],[175.327108,-40.597169],[175.343309,-40.605007],[175.338011,-40.611458],[175.351774,-40.616011],[175.376975,-40.624372],[175.388838,-40.628274],[175.399164,-40.631696],[175.400108,-40.631292],[175.401218,-40.631172],[175.401593,-40.631291],[175.402093,-40.631181],[175.402778,-40.631254],[175.40324,-40.631386],[175.403172,-40.631511],[175.40361,-40.631674],[175.403887,-40.631302],[175.404283,-40.631207],[175.404728,-40.631369],[175.405377,-40.631526],[175.405729,-40.631745],[175.406414,-40.632098],[175.407019,-40.632062],[175.407403,-40.63189],[175.408017,-40.631961],[175.408213,-40.632201],[175.408572,-40.632228],[175.409159,-40.632365],[175.410017,-40.632352],[175.410108,-40.632492],[175.409005,-40.632701],[175.408153,-40.632609],[175.407784,-40.632608],[175.406786,-40.633472],[175.407189,-40.633794],[175.408846,-40.6341],[175.408909,-40.634369],[175.410371,-40.63457],[175.412069,-40.633532],[175.413378,-40.633135],[175.413795,-40.633345],[175.414263,-40.633762],[175.414811,-40.634469],[175.414795,-40.634502],[175.415635,-40.634797],[175.416383,-40.635401],[175.417437,-40.635597],[175.418125,-40.636226],[175.417603,-40.637809],[175.417759,-40.63785],[175.435114,-40.643641],[175.426814,-40.653735],[175.409268,-40.647972],[175.404344,-40.653895],[175.421913,-40.659718],[175.413668,-40.669762],[175.39607,-40.664008],[175.402338,-40.656411],[175.382195,-40.649652],[175.382094,-40.650005],[175.381882,-40.650113],[175.381704,-40.650295],[175.38003,-40.651828],[175.379004,-40.652344],[175.378407,-40.652851],[175.377554,-40.653947],[175.376903,-40.654325],[175.376299,-40.654873],[175.375292,-40.655313],[175.37483,-40.656463],[175.37445,-40.65694],[175.37437,-40.657174],[175.373835,-40.657576],[175.373561,-40.657602],[175.373412,-40.657718],[175.373156,-40.658152],[175.371885,-40.6594],[175.371775,-40.659455],[175.370098,-40.661755],[175.391876,-40.669148],[175.383584,-40.678978],[175.344113,-40.665375],[175.34396,-40.665822],[175.342515,-40.665671],[175.340124,-40.66637],[175.333255,-40.668368],[175.333009,-40.668741],[175.326773,-40.666566],[175.321881,-40.66485],[175.320976,-40.664472],[175.320766,-40.664294],[175.320764,-40.664327],[175.320715,-40.664463],[175.320681,-40.664513],[175.320658,-40.664537],[175.320644,-40.664563],[175.320615,-40.664595],[175.320536,-40.664735],[175.320524,-40.664748],[175.320492,-40.664817],[175.320455,-40.664867],[175.320443,-40.664902],[175.320391,-40.664979],[175.32033,-40.66505],[175.320318,-40.665069],[175.320304,-40.665077],[175.32024,-40.66519],[175.320219,-40.665208],[175.320137,-40.665281],[175.320049,-40.665359],[175.319997,-40.66542],[175.319984,-40.665438],[175.31995,-40.665467],[175.319893,-40.665491],[175.319827,-40.665535],[175.319777,-40.665563],[175.319752,-40.665574],[175.319727,-40.665585],[175.319722,-40.665587],[175.319715,-40.66559],[175.319698,-40.665597],[175.319692,-40.665599],[175.319625,-40.665623],[175.319385,-40.665719],[175.31905,-40.665991],[175.318589,-40.666143],[175.318163,-40.666217],[175.318287,-40.66636],[175.318289,-40.66643],[175.317852,-40.666668],[175.317827,-40.666758],[175.317768,-40.666847],[175.3177,-40.666883],[175.317653,-40.666901],[175.317554,-40.666922],[175.317346,-40.666935],[175.317297,-40.666943],[175.317232,-40.666957],[175.317018,-40.666978],[175.316998,-40.666975],[175.316965,-40.666977],[175.316939,-40.666981],[175.316913,-40.667001],[175.316895,-40.667028],[175.316896,-40.667043],[175.316899,-40.667052],[175.316956,-40.667108],[175.316962,-40.667117],[175.31698,-40.667128],[175.317005,-40.667154],[175.317076,-40.667198],[175.317088,-40.667213],[175.317117,-40.667273],[175.317128,-40.667446],[175.317116,-40.667479],[175.317113,-40.667515],[175.317116,-40.667528],[175.317065,-40.667599],[175.317062,-40.667588],[175.317072,-40.667484],[175.317018,-40.667351],[175.317014,-40.667329],[175.317009,-40.667317],[175.316897,-40.667211],[175.316864,-40.667195],[175.316809,-40.667153],[175.316777,-40.667142],[175.316711,-40.667111],[175.316775,-40.666967],[175.31689,-40.666703],[175.316935,-40.666599],[175.316883,-40.666553],[175.316919,-40.666537],[175.316962,-40.666493],[175.316997,-40.666463],[175.317117,-40.666385],[175.317179,-40.666344],[175.317236,-40.666301],[175.317285,-40.666268],[175.317408,-40.665982],[175.316968,-40.665973],[175.316729,-40.666326],[175.316642,-40.666528],[175.316368,-40.667002],[175.316343,-40.667024],[175.316325,-40.667031],[175.316296,-40.667028],[175.316203,-40.667002],[175.316133,-40.666973],[175.315977,-40.666959],[175.315721,-40.666884],[175.315673,-40.66688],[175.31527,-40.666759],[175.315238,-40.666754],[175.314943,-40.666651],[175.314809,-40.666614],[175.314754,-40.666606],[175.314678,-40.666579],[175.314589,-40.666522],[175.314428,-40.666346],[175.314362,-40.666309],[175.314254,-40.666227],[175.314204,-40.666174],[175.313881,-40.665917],[175.313829,-40.665885],[175.313388,-40.665546],[175.313258,-40.665466],[175.313107,-40.665389],[175.313042,-40.665379],[175.312907,-40.665385],[175.312793,-40.665413],[175.31249,-40.66555],[175.312367,-40.665625],[175.312194,-40.665698],[175.311942,-40.66581],[175.311899,-40.665866],[175.311871,-40.665899],[175.311723,-40.666184],[175.311637,-40.666306],[175.311533,-40.666403],[175.311422,-40.666489],[175.31139,-40.666526],[175.311284,-40.666598],[175.310922,-40.666813],[175.310752,-40.666869],[175.310487,-40.666975],[175.310421,-40.667008],[175.309824,-40.667236],[175.309684,-40.66728],[175.309367,-40.667344],[175.309155,-40.667355],[175.308206,-40.667366],[175.308178,-40.667363],[175.307955,-40.667366],[175.30792,-40.667372],[175.307691,-40.667368],[175.307545,-40.667371],[175.307393,-40.66731],[175.307352,-40.667305],[175.307221,-40.667312],[175.307159,-40.667325],[175.307112,-40.667348],[175.306959,-40.667519],[175.306708,-40.667532],[175.30657,-40.66756],[175.306488,-40.667583],[175.306406,-40.667618],[175.306288,-40.667657],[175.306238,-40.667677],[175.306088,-40.667711],[175.306023,-40.667728],[175.305975,-40.667743],[175.305855,-40.667769],[175.305646,-40.66783],[175.305498,-40.667858],[175.305425,-40.667877],[175.3053,-40.667894],[175.305227,-40.667913],[175.305195,-40.667924],[175.305169,-40.667927],[175.305054,-40.667964],[175.304847,-40.668023],[175.304809,-40.668038],[175.304762,-40.668047],[175.304348,-40.668062],[175.304321,-40.668057],[175.304209,-40.668061],[175.30408,-40.668057],[175.303889,-40.668033],[175.303818,-40.668031],[175.303733,-40.668022],[175.303665,-40.668025],[175.303598,-40.668042],[175.303556,-40.668066],[175.303526,-40.668098],[175.303513,-40.668149],[175.303517,-40.668255],[175.303509,-40.668289],[175.30351,-40.668298],[175.303431,-40.668379],[175.303373,-40.668412],[175.303308,-40.66843],[175.302988,-40.668456],[175.302803,-40.668483],[175.302706,-40.668492],[175.302664,-40.668491],[175.302618,-40.668494],[175.302557,-40.668491],[175.302233,-40.668443],[175.302126,-40.668413],[175.30207,-40.66839],[175.30205,-40.668359],[175.301927,-40.668296],[175.301864,-40.668266],[175.301826,-40.668252],[175.301764,-40.668224],[175.301649,-40.668191],[175.301548,-40.668173],[175.301407,-40.668131],[175.301234,-40.668095],[175.301182,-40.668092],[175.301153,-40.668093],[175.301036,-40.668095],[175.300951,-40.668104],[175.30094,-40.668111],[175.300793,-40.668144],[175.300739,-40.668159],[175.300707,-40.668166],[175.300623,-40.668184],[175.300582,-40.668197],[175.300557,-40.668208],[175.300449,-40.66823],[175.300291,-40.668262],[175.300212,-40.668288],[175.300076,-40.668331],[175.299996,-40.668367],[175.299919,-40.668425],[175.299814,-40.668484],[175.299696,-40.668516],[175.299585,-40.668557],[175.299455,-40.668595],[175.29941,-40.668615],[175.299201,-40.668709],[175.299156,-40.668722],[175.299051,-40.668766],[175.299011,-40.668789],[175.298847,-40.668854],[175.298794,-40.668869],[175.298754,-40.668884],[175.2987,-40.668896],[175.298582,-40.668897],[175.298528,-40.668902],[175.298506,-40.668901],[175.298469,-40.668908],[175.29843,-40.668907],[175.298343,-40.668895],[175.29829,-40.668877],[175.29824,-40.668873],[175.298171,-40.668851],[175.29803,-40.668845],[175.29794,-40.668832],[175.297834,-40.668785],[175.297645,-40.668732],[175.297554,-40.668711],[175.297384,-40.668677],[175.297348,-40.668676],[175.297271,-40.66866],[175.297128,-40.668601],[175.296984,-40.668564],[175.296748,-40.668515],[175.296709,-40.668505],[175.296605,-40.66847],[175.296556,-40.668457],[175.296432,-40.66841],[175.296356,-40.668369],[175.296332,-40.66835],[175.296304,-40.668335],[175.296266,-40.668306],[175.296145,-40.668186],[175.296113,-40.668165],[175.29605,-40.668108],[175.296012,-40.66805],[175.295995,-40.668013],[175.29597,-40.667975],[175.295939,-40.667943],[175.295854,-40.667879],[175.295827,-40.66785],[175.295783,-40.667817],[175.295719,-40.667736],[175.295687,-40.667709],[175.295659,-40.667676],[175.295407,-40.66723],[175.295358,-40.667041],[175.295338,-40.667001],[175.295286,-40.666866],[175.295246,-40.666801],[175.295183,-40.666645],[175.295111,-40.666488],[175.295049,-40.66636],[175.294944,-40.666215],[175.29491,-40.666123],[175.294913,-40.666114],[175.294863,-40.666078],[175.294724,-40.665923],[175.294657,-40.665874],[175.294601,-40.665848],[175.294573,-40.665817],[175.294533,-40.665785],[175.294488,-40.665756],[175.294467,-40.665728],[175.294408,-40.665682],[175.294386,-40.665672],[175.294292,-40.665628],[175.294233,-40.665595],[175.294184,-40.66558],[175.294115,-40.665563],[175.29399,-40.665541],[175.293964,-40.665537],[175.29365,-40.665527],[175.293593,-40.66553],[175.29353,-40.665549],[175.293293,-40.665576],[175.293249,-40.665586],[175.293171,-40.665613],[175.293056,-40.665668],[175.293018,-40.665693],[175.292975,-40.665749],[175.292952,-40.665789],[175.292925,-40.665898],[175.292906,-40.665939],[175.292868,-40.665995],[175.292819,-40.666056],[175.292683,-40.666164],[175.292553,-40.666281],[175.292497,-40.666347],[175.292407,-40.666421],[175.292362,-40.66644],[175.292269,-40.666504],[175.292219,-40.666534],[175.292117,-40.666566],[175.292057,-40.666601],[175.2919,-40.666661],[175.291847,-40.666695],[175.291688,-40.666852],[175.291531,-40.666933],[175.291495,-40.666958],[175.291436,-40.667015],[175.291425,-40.667026],[175.291392,-40.667047],[175.291356,-40.667081],[175.291325,-40.667104],[175.291295,-40.667142],[175.291239,-40.667201],[175.291212,-40.667244],[175.291178,-40.667318],[175.291158,-40.667333],[175.29088,-40.667439],[175.29082,-40.66755],[175.290738,-40.667625],[175.290673,-40.667671],[175.290484,-40.667744],[175.290297,-40.667826],[175.290265,-40.667836],[175.290237,-40.667841],[175.290227,-40.667848],[175.290158,-40.667863],[175.290131,-40.667851],[175.289625,-40.668543],[175.287079,-40.667258],[175.285588,-40.667516],[175.284255,-40.668215],[175.284244,-40.668276],[175.284176,-40.668393],[175.283924,-40.66872],[175.283881,-40.668757],[175.283844,-40.668783],[175.283774,-40.668822],[175.283606,-40.66894],[175.283569,-40.668969],[175.283541,-40.668982],[175.283433,-40.66908],[175.283415,-40.669108],[175.28338,-40.669151],[175.28332,-40.66923],[175.283121,-40.669371],[175.283102,-40.669377],[175.282996,-40.669463],[175.282977,-40.669472],[175.282925,-40.669513],[175.282874,-40.669577],[175.282815,-40.669668],[175.282752,-40.66973],[175.282733,-40.669744],[175.282583,-40.669853],[175.282571,-40.669866],[175.282508,-40.669908],[175.28249,-40.669925],[175.282473,-40.66993],[175.2824,-40.669969],[175.282381,-40.669976],[175.282276,-40.670031],[175.282252,-40.670039],[175.282243,-40.670048],[175.282102,-40.670126],[175.282089,-40.670128],[175.281939,-40.670176],[175.281912,-40.670192],[175.281738,-40.670342],[175.281671,-40.670414],[175.281617,-40.670456],[175.281548,-40.670563],[175.281532,-40.670595],[175.281446,-40.670707],[175.281347,-40.670787],[175.281327,-40.670806],[175.2812,-40.670963],[175.281072,-40.671111],[175.281019,-40.671163],[175.280879,-40.671249],[175.280829,-40.67129],[175.280781,-40.671336],[175.280732,-40.6714],[175.280665,-40.671513],[175.280524,-40.67169],[175.28043,-40.671796],[175.280348,-40.671857],[175.280309,-40.671912],[175.280306,-40.671924],[175.280269,-40.671983],[175.280198,-40.672063],[175.280135,-40.672148],[175.280012,-40.672395],[175.280038,-40.672722],[175.280024,-40.673051],[175.279996,-40.673218],[175.279964,-40.673305],[175.279804,-40.673536],[175.279867,-40.673559],[175.279836,-40.673626],[175.27981,-40.673661],[175.279761,-40.673711],[175.279707,-40.673749],[175.279669,-40.673787],[175.279628,-40.673833],[175.279608,-40.673868],[175.279564,-40.673921],[175.279504,-40.673975],[175.279463,-40.674008],[175.279438,-40.67402],[175.279376,-40.674066],[175.279326,-40.674117],[175.279228,-40.67419],[175.279134,-40.674234],[175.279011,-40.674325],[175.278908,-40.674401],[175.278797,-40.674453],[175.278673,-40.674512],[175.278628,-40.674526],[175.278592,-40.674542],[175.278571,-40.674544],[175.278485,-40.674568],[175.278371,-40.674584],[175.27834,-40.67458],[175.27822,-40.674581],[175.278184,-40.674589],[175.278163,-40.674589],[175.278133,-40.674599],[175.278094,-40.674601],[175.277959,-40.674624],[175.277813,-40.674649],[175.277699,-40.674658],[175.277664,-40.674656],[175.277393,-40.674676],[175.277255,-40.674706],[175.277169,-40.674735],[175.277138,-40.67475],[175.277034,-40.674784],[175.276943,-40.674821],[175.276809,-40.674845],[175.27663,-40.674864],[175.276555,-40.674875],[175.276184,-40.674876],[175.276115,-40.674874],[175.275994,-40.67488],[175.275859,-40.674867],[175.275833,-40.67487],[175.275682,-40.674858],[175.275538,-40.674883],[175.275356,-40.674951],[175.27519,-40.674988],[175.275141,-40.674993],[175.274839,-40.675054],[175.274732,-40.675052],[175.274611,-40.675033],[175.274229,-40.674972],[175.274143,-40.674952],[175.274123,-40.674952],[175.27405,-40.674937],[175.274002,-40.674906],[175.273895,-40.674868],[175.273736,-40.674836],[175.273638,-40.674804],[175.27355,-40.67479],[175.273409,-40.674769],[175.273379,-40.67477],[175.273234,-40.674763],[175.2732,-40.674763],[175.273137,-40.674779],[175.273107,-40.674781],[175.273041,-40.674803],[175.272996,-40.674823],[175.272926,-40.674863],[175.272851,-40.674893],[175.272636,-40.674932],[175.272611,-40.674937],[175.272475,-40.674971],[175.272401,-40.674981],[175.272319,-40.674992],[175.27217,-40.675036],[175.272056,-40.67508],[175.271888,-40.675144],[175.271709,-40.6752],[175.271692,-40.6752],[175.271649,-40.67521],[175.271451,-40.675243],[175.271396,-40.675257],[175.271326,-40.67528],[175.2713,-40.675297],[175.271243,-40.675322],[175.271233,-40.675322],[175.271055,-40.675449],[175.270945,-40.675518],[175.270758,-40.675634],[175.270715,-40.675672],[175.270641,-40.675714],[175.270588,-40.675735],[175.270552,-40.675762],[175.270517,-40.675789],[175.270498,-40.675802],[175.27049,-40.675811],[175.270485,-40.675815],[175.270439,-40.675827],[175.270405,-40.675855],[175.270371,-40.67587],[175.27036,-40.675879],[175.270344,-40.675888],[175.270336,-40.675897],[175.270318,-40.675909],[175.270304,-40.675923],[175.270271,-40.67595],[175.270251,-40.67597],[175.270221,-40.676],[175.270202,-40.676014],[175.270185,-40.676024],[175.270158,-40.676052],[175.270158,-40.676055],[175.270125,-40.676078],[175.270116,-40.676092],[175.270098,-40.676104],[175.270071,-40.676125],[175.270056,-40.676141],[175.270022,-40.676234],[175.270018,-40.67624],[175.281915,-40.681074],[175.274431,-40.693516],[175.283468,-40.696484],[175.277063,-40.708087],[175.265026,-40.7335],[175.263663,-40.73464],[175.263538,-40.734673],[175.263485,-40.734679],[175.263371,-40.734727],[175.263219,-40.734771],[175.26316,-40.734792],[175.263051,-40.73484],[175.262903,-40.734938],[175.262844,-40.735007],[175.262781,-40.735113],[175.262682,-40.735234],[175.262629,-40.735281],[175.262611,-40.735311],[175.26249,-40.735409],[175.262415,-40.735493],[175.26237,-40.735563],[175.262312,-40.735707],[175.262119,-40.735929],[175.2619,-40.736147],[175.261681,-40.73629],[175.26114,-40.736378],[175.260922,-40.736462],[175.260871,-40.736495],[175.260795,-40.736568],[175.26077,-40.73661],[175.260714,-40.736681],[175.260665,-40.736728],[175.260646,-40.73675],[175.260606,-40.736846],[175.26054,-40.736931],[175.260457,-40.736991],[175.26042,-40.737005],[175.260278,-40.737087],[175.260248,-40.737117],[175.260116,-40.737262],[175.260058,-40.737437],[175.260065,-40.737496],[175.260044,-40.737652],[175.259971,-40.737763],[175.259834,-40.737887],[175.259779,-40.737919],[175.259646,-40.737978],[175.25956,-40.738016],[175.259491,-40.73806],[175.25944,-40.738085],[175.259377,-40.738116],[175.259332,-40.738133],[175.259236,-40.738184],[175.259138,-40.738249],[175.259032,-40.73832],[175.258858,-40.738475],[175.25884,-40.73849],[175.258777,-40.738544],[175.258674,-40.738614],[175.25861,-40.738668],[175.258429,-40.738788],[175.25837,-40.738868],[175.258341,-40.738923],[175.258291,-40.738983],[175.258233,-40.739042],[175.258204,-40.739079],[175.258162,-40.739107],[175.258132,-40.739135],[175.258096,-40.739176],[175.258067,-40.739231],[175.258038,-40.739299],[175.258014,-40.739332],[175.257992,-40.739382],[175.257968,-40.73946],[175.257938,-40.739519],[175.257921,-40.73959],[175.257911,-40.73977],[175.257911,-40.739817],[175.257927,-40.739858],[175.257931,-40.739868],[175.257938,-40.739965],[175.25795,-40.740002],[175.257969,-40.740037],[175.257994,-40.740119],[175.258001,-40.740156],[175.25802,-40.740209],[175.258021,-40.740315],[175.258027,-40.740353],[175.258022,-40.740433],[175.258047,-40.740464],[175.258066,-40.740606],[175.258092,-40.740645],[175.258064,-40.740884],[175.258072,-40.740926],[175.258067,-40.740947],[175.258024,-40.741019],[175.257989,-40.741093],[175.257984,-40.741167],[175.257932,-40.741345],[175.257876,-40.741454],[175.257871,-40.741463],[175.257861,-40.741482],[175.257827,-40.741541],[175.25776,-40.741631],[175.257721,-40.741673],[175.257687,-40.74171],[175.257671,-40.741731],[175.257612,-40.741804],[175.257539,-40.741852],[175.257522,-40.741865],[175.257291,-40.742046],[175.257229,-40.742133],[175.257218,-40.742155],[175.257016,-40.742329],[175.256935,-40.742433],[175.256891,-40.742476],[175.256848,-40.742535],[175.256819,-40.742584],[175.256625,-40.742826],[175.256583,-40.74289],[175.256536,-40.742979],[175.256518,-40.743015],[175.256495,-40.743051],[175.256465,-40.743122],[175.25643,-40.743183],[175.256424,-40.743233],[175.2564,-40.743286],[175.256342,-40.743363],[175.256336,-40.743406],[175.256306,-40.743497],[175.256284,-40.743545],[175.25625,-40.743671],[175.256217,-40.743709],[175.256131,-40.74379],[175.256074,-40.743825],[175.255974,-40.743897],[175.255896,-40.743943],[175.255731,-40.744064],[175.2557,-40.744087],[175.255658,-40.744114],[175.255634,-40.744137],[175.255487,-40.744342],[175.255432,-40.744462],[175.255429,-40.744512],[175.255389,-40.744636],[175.255362,-40.744661],[175.255296,-40.744785],[175.255258,-40.744871],[175.255155,-40.745006],[175.255102,-40.745052],[175.254947,-40.745144],[175.254911,-40.745172],[175.25487,-40.745195],[175.254803,-40.745241],[175.254679,-40.745355],[175.254622,-40.745418],[175.254599,-40.745449],[175.254553,-40.745532],[175.25452,-40.745633],[175.254496,-40.745677],[175.25449,-40.745704],[175.254455,-40.745751],[175.254342,-40.745861],[175.254235,-40.745926],[175.254072,-40.745972],[175.253982,-40.745992],[175.253444,-40.745964],[175.253385,-40.745937],[175.253329,-40.745924],[175.253305,-40.745924],[175.253101,-40.745885],[175.253071,-40.745871],[175.252981,-40.74585],[175.252918,-40.745831],[175.252865,-40.745823],[175.252701,-40.745768],[175.252597,-40.745723],[175.252494,-40.745692],[175.25244,-40.745671],[175.25241,-40.745647],[175.252355,-40.74562],[175.252319,-40.745616],[175.252289,-40.745605],[175.252206,-40.745542],[175.251961,-40.745705],[175.251549,-40.746033],[175.251096,-40.745995],[175.250714,-40.746741],[175.250184,-40.74644],[175.250244,-40.7433],[175.250007,-40.74315],[175.24997,-40.743132],[175.249922,-40.7431],[175.249899,-40.743092],[175.249823,-40.74305],[175.249765,-40.743029],[175.249741,-40.743006],[175.249707,-40.74299],[175.249668,-40.742957],[175.249612,-40.742924],[175.249551,-40.742902],[175.249509,-40.742879],[175.249369,-40.742823],[175.249313,-40.742809],[175.249158,-40.742744],[175.249001,-40.742714],[175.248945,-40.742709],[175.248898,-40.74271],[175.248856,-40.742701],[175.248814,-40.742701],[175.248765,-40.742688],[175.248723,-40.742684],[175.248686,-40.742675],[175.248619,-40.742684],[175.248573,-40.742698],[175.24851,-40.742699],[175.248426,-40.742709],[175.248366,-40.742723],[175.248324,-40.742737],[175.248236,-40.742751],[175.24817,-40.742752],[175.247995,-40.742776],[175.247931,-40.742776],[175.247843,-40.742772],[175.247782,-40.742754],[175.247705,-40.742738],[175.247644,-40.742714],[175.247599,-40.742709],[175.247541,-40.742683],[175.247505,-40.742661],[175.247433,-40.742635],[175.247379,-40.742603],[175.247344,-40.742569],[175.247075,-40.742373],[175.247014,-40.742342],[175.246873,-40.742258],[175.246735,-40.742133],[175.246648,-40.742086],[175.246569,-40.742032],[175.246443,-40.742001],[175.246417,-40.742001],[175.246327,-40.741961],[175.246221,-40.741892],[175.246193,-40.741856],[175.246106,-40.741797],[175.245994,-40.741775],[175.245857,-40.741776],[175.245703,-40.741791],[175.245637,-40.741788],[175.245502,-40.741751],[175.245445,-40.741739],[175.245377,-40.741712],[175.245225,-40.741607],[175.245181,-40.741584],[175.245163,-40.741557],[175.245126,-40.74153],[175.245098,-40.7415],[175.245077,-40.741471],[175.245084,-40.741453],[175.245058,-40.741438],[175.245003,-40.741389],[175.244975,-40.741349],[175.244949,-40.741326],[175.244917,-40.741279],[175.244889,-40.741246],[175.244842,-40.741211],[175.244755,-40.741154],[175.244717,-40.741135],[175.244664,-40.741122],[175.244634,-40.741122],[175.244559,-40.7411],[175.244502,-40.741079],[175.244357,-40.740999],[175.244337,-40.740989],[175.244289,-40.740939],[175.244257,-40.740893],[175.244244,-40.740801],[175.244248,-40.740772],[175.244248,-40.740737],[175.244237,-40.740704],[175.244175,-40.740654],[175.244136,-40.74064],[175.244114,-40.740626],[175.244016,-40.740614],[175.243958,-40.740615],[175.243825,-40.740598],[175.243688,-40.740545],[175.243638,-40.740518],[175.243515,-40.740432],[175.243465,-40.740376],[175.243449,-40.740341],[175.243411,-40.740303],[175.243393,-40.740272],[175.24336,-40.740231],[175.243292,-40.740121],[175.243128,-40.74001],[175.243075,-40.739981],[175.24296,-40.739941],[175.242911,-40.739914],[175.242831,-40.739882],[175.2427,-40.739806],[175.242591,-40.73971],[175.242383,-40.739555],[175.242232,-40.739393],[175.242175,-40.739306],[175.242082,-40.739225],[175.242016,-40.739193],[175.241991,-40.739175],[175.241967,-40.739166],[175.24192,-40.739126],[175.241858,-40.739089],[175.241774,-40.739061],[175.241561,-40.739032],[175.241544,-40.739096],[175.241532,-40.739114],[175.241515,-40.739197],[175.241515,-40.739224],[175.241504,-40.739242],[175.241476,-40.739414],[175.24147,-40.73949],[175.241447,-40.739572],[175.241424,-40.739609],[175.241406,-40.73965],[175.241388,-40.739673],[175.241371,-40.739733],[175.241365,-40.739769],[175.241342,-40.739829],[175.241282,-40.739925],[175.241265,-40.739963],[175.241247,-40.73998],[175.241236,-40.740026],[175.241207,-40.740101],[175.241142,-40.740197],[175.241118,-40.740243],[175.241099,-40.740266],[175.241076,-40.740323],[175.241048,-40.740402],[175.240977,-40.740541],[175.240967,-40.740575],[175.240948,-40.740651],[175.240949,-40.740668],[175.240944,-40.740681],[175.240931,-40.740715],[175.240914,-40.740789],[175.240908,-40.740816],[175.240898,-40.740847],[175.240886,-40.74094],[175.240869,-40.741007],[175.240845,-40.741053],[175.240847,-40.741236],[175.240854,-40.741277],[175.240855,-40.741342],[175.240833,-40.741561],[175.240834,-40.741625],[175.240873,-40.741851],[175.240874,-40.741937],[175.240893,-40.742004],[175.240906,-40.742031],[175.2409,-40.742054],[175.240907,-40.742103],[175.240909,-40.742351],[175.240915,-40.74241],[175.240935,-40.742469],[175.240959,-40.742526],[175.241011,-40.742707],[175.241065,-40.742811],[175.241073,-40.742835],[175.241097,-40.742871],[175.241098,-40.742903],[175.241142,-40.74308],[175.241136,-40.743176],[175.241242,-40.74331],[175.240717,-40.743814],[175.240525,-40.744361],[175.240439,-40.74468],[175.239429,-40.74653],[175.238802,-40.747668],[175.239131,-40.747774],[175.239202,-40.747858],[175.250229,-40.74781],[175.250055,-40.761692],[175.250144,-40.761791],[175.250275,-40.761954],[175.250367,-40.762177],[175.250424,-40.762275],[175.250459,-40.762296],[175.250513,-40.762386],[175.250558,-40.762403],[175.250667,-40.762539],[175.250682,-40.762588],[175.250691,-40.762619],[175.25086,-40.762846],[175.251076,-40.763086],[175.251261,-40.763278],[175.251706,-40.763668],[175.252104,-40.76395],[175.253139,-40.764426],[175.253207,-40.764436],[175.253448,-40.764524],[175.25357,-40.764554],[175.254099,-40.764678],[175.254412,-40.764779],[175.254751,-40.764774],[175.255218,-40.76479],[175.255689,-40.764759],[175.256045,-40.764709],[175.256163,-40.764678],[175.256495,-40.764651],[175.256958,-40.764638],[175.256986,-40.764639],[175.257345,-40.764655],[175.257947,-40.764803],[175.258606,-40.765082],[175.259173,-40.765217],[175.259361,-40.765261],[175.259509,-40.765324],[175.259706,-40.765457],[175.260073,-40.76553],[175.260296,-40.76555],[175.260866,-40.765525],[175.261149,-40.76554],[175.26159,-40.765703],[175.261829,-40.765923],[175.26213,-40.766255],[175.262206,-40.766287],[175.262363,-40.766463],[175.262456,-40.766535],[175.262705,-40.766817],[175.262877,-40.767022],[175.263082,-40.767208],[175.263149,-40.767293],[175.263388,-40.767469],[175.263735,-40.767666],[175.263872,-40.767743],[175.263949,-40.767781],[175.264125,-40.767862],[175.264541,-40.768013],[175.264788,-40.768135],[175.265138,-40.768211],[175.265439,-40.768314],[175.265508,-40.768301],[175.265855,-40.768429],[175.266145,-40.768484],[175.266464,-40.768572],[175.266647,-40.76861],[175.267188,-40.768672],[175.267349,-40.76867],[175.267556,-40.768672],[175.267803,-40.768703],[175.268739,-40.76871],[175.269313,-40.768667],[175.269878,-40.768557],[175.269909,-40.768532],[175.270304,-40.768393],[175.271154,-40.767997],[175.271409,-40.76786],[175.272493,-40.767176],[175.272922,-40.766923],[175.273324,-40.766753],[175.273481,-40.766705],[175.273752,-40.766661],[175.274053,-40.766609],[175.274219,-40.766604],[175.274962,-40.766671],[175.275094,-40.766665],[175.275237,-40.766659],[175.275887,-40.766583],[175.276024,-40.766564],[175.276296,-40.766512],[175.276413,-40.766469],[175.276487,-40.766436],[175.276616,-40.766361],[175.276755,-40.766278],[175.276885,-40.766178],[175.277077,-40.765991],[175.277187,-40.765882],[175.277296,-40.765741],[175.277352,-40.765673],[175.277421,-40.765553],[175.277726,-40.765027],[175.278303,-40.764253],[175.27855,-40.763789],[175.27882,-40.763466],[175.279036,-40.763289],[175.279276,-40.763139],[175.27966,-40.762989],[175.279756,-40.762953],[175.279996,-40.76288],[175.281407,-40.762612],[175.282229,-40.762402],[175.283021,-40.762011],[175.283879,-40.761361],[175.284017,-40.76118],[175.28433,-40.76057],[175.284372,-40.760529],[175.284924,-40.760161],[175.285308,-40.759811],[175.285554,-40.759547],[175.285842,-40.75912],[175.285992,-40.758934],[175.286532,-40.758338],[175.286856,-40.75792],[175.287523,-40.757229],[175.287661,-40.757102],[175.287799,-40.756888],[175.288208,-40.756414],[175.288587,-40.756027],[175.288867,-40.755751],[175.289225,-40.755405],[175.289609,-40.755124],[175.289807,-40.754981],[175.290143,-40.754832],[175.291138,-40.754248],[175.291606,-40.754046],[175.29205,-40.753866],[175.292575,-40.753685],[175.293501,-40.75343],[175.294112,-40.753182],[175.294238,-40.753182],[175.29471,-40.753031],[175.294786,-40.753004],[175.295228,-40.752821],[175.29566,-40.752712],[175.295988,-40.752606],[175.296144,-40.75255],[175.296851,-40.75229],[175.29767,-40.75206],[175.297779,-40.752058],[175.298196,-40.752129],[175.298523,-40.752214],[175.298898,-40.752434],[175.299138,-40.752713],[175.299262,-40.752913],[175.299293,-40.752993],[175.299331,-40.753049],[175.299465,-40.75315],[175.299764,-40.753226],[175.299897,-40.753246],[175.299959,-40.753259],[175.300117,-40.75323],[175.300576,-40.753085],[175.300748,-40.753055],[175.300984,-40.753049],[175.301639,-40.752984],[175.301899,-40.752957],[175.302546,-40.752825],[175.303242,-40.752754],[175.303435,-40.752747],[175.30408,-40.752644],[175.304317,-40.752586],[175.305174,-40.752438],[175.305459,-40.752349],[175.305723,-40.752251],[175.30616,-40.75209],[175.306537,-40.75196],[175.306863,-40.751834],[175.307041,-40.751728],[175.307102,-40.751655],[175.307177,-40.75154],[175.307161,-40.751149],[175.307119,-40.751069],[175.307105,-40.750911],[175.307126,-40.75063],[175.307266,-40.750334],[175.307643,-40.750085],[175.309182,-40.749744],[175.310051,-40.749637],[175.310775,-40.749618],[175.313509,-40.749726],[175.317669,-40.749384],[175.319024,-40.74933],[175.321093,-40.74942],[175.322186,-40.749654],[175.322686,-40.749752],[175.323473,-40.749827],[175.324034,-40.749796],[175.324451,-40.74973],[175.324769,-40.74966],[175.325081,-40.749546],[175.325452,-40.749476],[175.325573,-40.749432],[175.325857,-40.749424],[175.32621,-40.749437],[175.326641,-40.749359],[175.326956,-40.749209],[175.327176,-40.749051],[175.327361,-40.748735],[175.327534,-40.748157],[175.327685,-40.747837],[175.327743,-40.74767],[175.327767,-40.747364],[175.327767,-40.747143],[175.327736,-40.746922],[175.327835,-40.746517],[175.328079,-40.746095],[175.328187,-40.745728],[175.328324,-40.744719],[175.328344,-40.744574],[175.328342,-40.744164],[175.328543,-40.744225],[175.328712,-40.744316],[175.328782,-40.744385],[175.329039,-40.744564],[175.329487,-40.744858],[175.329682,-40.744987],[175.330003,-40.745141],[175.330195,-40.745276],[175.330695,-40.745398],[175.330982,-40.745485],[175.331295,-40.745644],[175.331523,-40.74579],[175.331649,-40.745887],[175.331796,-40.746216],[175.332016,-40.747205],[175.332194,-40.747528],[175.332525,-40.748364],[175.33268,-40.748655],[175.332992,-40.749091],[175.33343,-40.749527],[175.333504,-40.749531],[175.333728,-40.749721],[175.334267,-40.750276],[175.335248,-40.751133],[175.335545,-40.751402],[175.335643,-40.751432],[175.335863,-40.751577],[175.335976,-40.751683],[175.336107,-40.751739],[175.336279,-40.751783],[175.336585,-40.751842],[175.336829,-40.751839],[175.336905,-40.751831],[175.337023,-40.751816],[175.337271,-40.751758],[175.337388,-40.751711],[175.337597,-40.751625],[175.337888,-40.751424],[175.338178,-40.751135],[175.338391,-40.7508],[175.338635,-40.750291],[175.338783,-40.750108],[175.338887,-40.749992],[175.338994,-40.749913],[175.339188,-40.749804],[175.339401,-40.749713],[175.339792,-40.749577],[175.340167,-40.749447],[175.340387,-40.749386],[175.34056,-40.749352],[175.340838,-40.749309],[175.341111,-40.749303],[175.341456,-40.749397],[175.341714,-40.749512],[175.343207,-40.750518],[175.343358,-40.75059],[175.343579,-40.750771],[175.343774,-40.750938],[175.344007,-40.751177],[175.344347,-40.751473],[175.344681,-40.751726],[175.344939,-40.751869],[175.345411,-40.75206],[175.34601,-40.752174],[175.346394,-40.752184],[175.346728,-40.752112],[175.346873,-40.752036],[175.346999,-40.751926],[175.347225,-40.751716],[175.347528,-40.751296],[175.348388,-40.749846],[175.348818,-40.749372],[175.348854,-40.749344],[175.348918,-40.749299],[175.349009,-40.749261],[175.349199,-40.749228],[175.349348,-40.749237],[175.349568,-40.748916],[175.349824,-40.748831],[175.349999,-40.748727],[175.350139,-40.74863],[175.350476,-40.74834],[175.350782,-40.748103],[175.351119,-40.747874],[175.351328,-40.747746],[175.351634,-40.747576],[175.351911,-40.747456],[175.352131,-40.747307],[175.352422,-40.74686],[175.352729,-40.746494],[175.352796,-40.746416],[175.352849,-40.746334],[175.352944,-40.746052],[175.352924,-40.745665],[175.352878,-40.745474],[175.352854,-40.745347],[175.352744,-40.745023],[175.352547,-40.744488],[175.352454,-40.743894],[175.352454,-40.743785],[175.352355,-40.743418],[175.35233,-40.74314],[175.352265,-40.742852],[175.352232,-40.742423],[175.352271,-40.742101],[175.35235,-40.74189],[175.352426,-40.741782],[175.352474,-40.741715],[175.3527,-40.741501],[175.352809,-40.741337],[175.352864,-40.74125],[175.352863,-40.741209],[175.353014,-40.740755],[175.353007,-40.740458],[175.353005,-40.740416],[175.352999,-40.740235],[175.352973,-40.740098],[175.352926,-40.739995],[175.352903,-40.739719],[175.352749,-40.73922],[175.352722,-40.739145],[175.352705,-40.739002],[175.352672,-40.738926],[175.352667,-40.73872],[175.352609,-40.738367],[175.352478,-40.737984],[175.351912,-40.736598],[175.351843,-40.736146],[175.351859,-40.735619],[175.351832,-40.734897],[175.351866,-40.734803],[175.351893,-40.734683],[175.352005,-40.734345],[175.352142,-40.734114],[175.352198,-40.734063],[175.352265,-40.733957],[175.352631,-40.733646],[175.35339,-40.732994],[175.353854,-40.732655],[175.354387,-40.73232],[175.354733,-40.732057],[175.354982,-40.731818],[175.355077,-40.731696],[175.355216,-40.731557],[175.35557,-40.731288],[175.355656,-40.731126],[175.355664,-40.730599],[175.355703,-40.730919],[175.355685,-40.730278],[175.355698,-40.730215],[175.355763,-40.730111],[175.355971,-40.730022],[175.356296,-40.730056],[175.356509,-40.730156],[175.356809,-40.730381],[175.357195,-40.730741],[175.357226,-40.730786],[175.357417,-40.730886],[175.357655,-40.73106],[175.357961,-40.73125],[175.358365,-40.731461],[175.358657,-40.731669],[175.358826,-40.731809],[175.35901,-40.731938],[175.359101,-40.731977],[175.359348,-40.732202],[175.35941,-40.732241],[175.359484,-40.7322],[175.359629,-40.732295],[175.359768,-40.732418],[175.359883,-40.73248],[175.360098,-40.732659],[175.360342,-40.732787],[175.360402,-40.732769],[175.360422,-40.732694],[175.360493,-40.732235],[175.360595,-40.731838],[175.360689,-40.731705],[175.360835,-40.73156],[175.361005,-40.73146],[175.361199,-40.731371],[175.36178,-40.731184],[175.362266,-40.73105],[175.362782,-40.730945],[175.363074,-40.7309],[175.363777,-40.730746],[175.364047,-40.730736],[175.364182,-40.730711],[175.364249,-40.730675],[175.364345,-40.730611],[175.364418,-40.730529],[175.364912,-40.72992],[175.365148,-40.729722],[175.365495,-40.729504],[175.366288,-40.729085],[175.366777,-40.728808],[175.367178,-40.728618],[175.367378,-40.728478],[175.367451,-40.728408],[175.367551,-40.728217],[175.367571,-40.72812],[175.367573,-40.727936],[175.36762,-40.727718],[175.368068,-40.727658],[175.368966,-40.727574],[175.369398,-40.72749],[175.369771,-40.727448],[175.370061,-40.727392],[175.37032,-40.727319],[175.370805,-40.727136],[175.371456,-40.726826],[175.371493,-40.726819],[175.371594,-40.726861],[175.371922,-40.727187],[175.372102,-40.727421],[175.372574,-40.727863],[175.372644,-40.727912],[175.3729,-40.728034],[175.373004,-40.728122],[175.373167,-40.728214],[175.373341,-40.72834],[175.373472,-40.728404],[175.373653,-40.728529],[175.374216,-40.72887],[175.37448,-40.729003],[175.374818,-40.729226],[175.37482,-40.729261],[175.375314,-40.729713],[175.375387,-40.729796],[175.375441,-40.729943],[175.375578,-40.730202],[175.375615,-40.730321],[175.375697,-40.730421],[175.375953,-40.731163],[175.376112,-40.731541],[175.376328,-40.731865],[175.376505,-40.732054],[175.376662,-40.732169],[175.377083,-40.7324],[175.377221,-40.732441],[175.377337,-40.732494],[175.377468,-40.732541],[175.377674,-40.732585],[175.37809,-40.732622],[175.378481,-40.732613],[175.378929,-40.732563],[175.37962,-40.732406],[175.380402,-40.73216],[175.380638,-40.732071],[175.380878,-40.731937],[175.381155,-40.731801],[175.38128,-40.731756],[175.38154,-40.731695],[175.382025,-40.731632],[175.382654,-40.731586],[175.382903,-40.731594],[175.383675,-40.731658],[175.384616,-40.73167],[175.384776,-40.731659],[175.384909,-40.731654],[175.385372,-40.731591],[175.38625,-40.731433],[175.386683,-40.731378],[175.387126,-40.731356],[175.38751,-40.731245],[175.388422,-40.731023],[175.388549,-40.731007],[175.388821,-40.731031],[175.38903,-40.731115],[175.389138,-40.731169],[175.38921,-40.731229],[175.389276,-40.731319],[175.389432,-40.731651],[175.389507,-40.731769],[175.389767,-40.732086],[175.389989,-40.732261],[175.390232,-40.732424],[175.390837,-40.732947],[175.391126,-40.733131],[175.391442,-40.733252],[175.391811,-40.733365],[175.392343,-40.73358],[175.392726,-40.733802],[175.392828,-40.733878],[175.393036,-40.734077],[175.393225,-40.734328],[175.39333,-40.734439],[175.393579,-40.734946],[175.393866,-40.735313],[175.394682,-40.735977],[175.395306,-40.736327],[175.395871,-40.736697],[175.396722,-40.737174],[175.397155,-40.737211],[175.39742,-40.737323],[175.397901,-40.737486],[175.398422,-40.737553],[175.398677,-40.737553],[175.399128,-40.737524],[175.399884,-40.737419],[175.40069,-40.737174],[175.40192,-40.736902],[175.402082,-40.73685],[175.402521,-40.736657],[175.402768,-40.736504],[175.403511,-40.735985],[175.403772,-40.735706],[175.404094,-40.735436],[175.404277,-40.735349],[175.404432,-40.735309],[175.404648,-40.735273],[175.404905,-40.735281],[175.405511,-40.735345],[175.406112,-40.735461],[175.406665,-40.73563],[175.406947,-40.735688],[175.407417,-40.735751],[175.407617,-40.735819],[175.407835,-40.735937],[175.408055,-40.736084],[175.408773,-40.736728],[175.409467,-40.737201],[175.409903,-40.737399],[175.410104,-40.737459],[175.410837,-40.737724],[175.410916,-40.737803],[175.411776,-40.738266],[175.412023,-40.7384],[175.412295,-40.738572],[175.41236,-40.738562],[175.412416,-40.738602],[175.412553,-40.738666],[175.41287,-40.738889],[175.413028,-40.739031],[175.413089,-40.739057],[175.413389,-40.739357],[175.413557,-40.739562],[175.413762,-40.739777],[175.414023,-40.740095],[175.414616,-40.740618],[175.41487,-40.740894],[175.415315,-40.741387],[175.41548,-40.741516],[175.416141,-40.741933],[175.416488,-40.742107],[175.416843,-40.742258],[175.417047,-40.742334],[175.417125,-40.742332],[175.4172,-40.742403],[175.417605,-40.742524],[175.417856,-40.742563],[175.418878,-40.742626],[175.419084,-40.742653],[175.419361,-40.742727],[175.419509,-40.74282],[175.419601,-40.742894],[175.420148,-40.743311],[175.420501,-40.743758],[175.421057,-40.744169],[175.421273,-40.74437],[175.421525,-40.744624],[175.421646,-40.744727],[175.421944,-40.744903],[175.422157,-40.74507],[175.422432,-40.745257],[175.422743,-40.745401],[175.422885,-40.745437],[175.423078,-40.745532],[175.423367,-40.745575],[175.424058,-40.745562],[175.424494,-40.745517],[175.425565,-40.74536],[175.426554,-40.745167],[175.426896,-40.745166],[175.427221,-40.745144],[175.427528,-40.745152],[175.427806,-40.745144],[175.428012,-40.745151],[175.428151,-40.745173],[175.428589,-40.745166],[175.428948,-40.745162],[175.429407,-40.745189],[175.429818,-40.745241],[175.430047,-40.745242],[175.430505,-40.745192],[175.430861,-40.745187],[175.430944,-40.745201],[175.431284,-40.745316],[175.431561,-40.745439],[175.431985,-40.745552],[175.432567,-40.745756],[175.432992,-40.746038],[175.43325,-40.746256],[175.433521,-40.746405],[175.433529,-40.74641],[175.43364,-40.746454],[175.433748,-40.746474],[175.433939,-40.746471],[175.434173,-40.746446],[175.434411,-40.746355],[175.434708,-40.746238],[175.435225,-40.745977],[175.436006,-40.745725],[175.436228,-40.745642],[175.43658,-40.745468],[175.437505,-40.744983],[175.438113,-40.744687],[175.439383,-40.744198],[175.439647,-40.744151],[175.439738,-40.744031],[175.439854,-40.743805],[175.440664,-40.742646],[175.440825,-40.742505],[175.441586,-40.741946],[175.441858,-40.741486],[175.442027,-40.741281],[175.442225,-40.740916],[175.442358,-40.740621],[175.442472,-40.740148],[175.442514,-40.739516],[175.442752,-40.738692],[175.442881,-40.738212],[175.442908,-40.737687],[175.442849,-40.737444],[175.442693,-40.737166],[175.44261,-40.736961],[175.442592,-40.736363],[175.442644,-40.73603],[175.442781,-40.735496],[175.44291,-40.735225],[175.443064,-40.735057],[175.443174,-40.734964],[175.443635,-40.734711],[175.443827,-40.734582],[175.444033,-40.734402],[175.444158,-40.734257],[175.444376,-40.73395],[175.44457,-40.73357],[175.444669,-40.733328],[175.444815,-40.73285],[175.444886,-40.732357],[175.444994,-40.732149],[175.445125,-40.731993],[175.445251,-40.731882],[175.445599,-40.731694],[175.445688,-40.73163],[175.445937,-40.731346],[175.446117,-40.731034],[175.446252,-40.730683],[175.44631,-40.730275],[175.446334,-40.730349],[175.446346,-40.729926],[175.446389,-40.729822],[175.446463,-40.729477],[175.44659,-40.728491],[175.446769,-40.727835],[175.446813,-40.727601],[175.446835,-40.727439],[175.446795,-40.727019],[175.446808,-40.726638],[175.446863,-40.726437],[175.446957,-40.726264],[175.447059,-40.726125],[175.447374,-40.725794],[175.447483,-40.725655],[175.447628,-40.725407],[175.447726,-40.725179],[175.473444,-40.693397],[175.54391,-40.722019],[175.560535,-40.72876],[175.560302,-40.729041],[175.560219,-40.729383],[175.560051,-40.729724],[175.559611,-40.729854],[175.559393,-40.730763],[175.559629,-40.731204],[175.559838,-40.731333],[175.560051,-40.731478],[175.560198,-40.731794],[175.559996,-40.731926],[175.559705,-40.73189],[175.559113,-40.732606],[175.559144,-40.733003],[175.559442,-40.733916],[175.559695,-40.734375],[175.560397,-40.734642],[175.560791,-40.734868],[175.561319,-40.73493],[175.561811,-40.734968],[175.562374,-40.735131],[175.563325,-40.735326],[175.564101,-40.735816],[175.564471,-40.735995],[175.564825,-40.736163],[175.56565,-40.736397],[175.566512,-40.736386],[175.567787,-40.736575],[175.568398,-40.736469],[175.568962,-40.736251],[175.569432,-40.73561],[175.570086,-40.735427],[175.570711,-40.735116],[175.571652,-40.734891],[175.571919,-40.734801],[175.572478,-40.734598],[175.57318,-40.734124],[175.57413,-40.73394],[175.574478,-40.734009],[175.575619,-40.733419],[175.575763,-40.733223],[175.575967,-40.733135],[175.576556,-40.733386],[175.586286,-40.73566],[175.587361,-40.734212],[175.588038,-40.735103],[175.589176,-40.735537],[175.589527,-40.736121],[175.589904,-40.736359],[175.59003,-40.736586],[175.590507,-40.736979],[175.591513,-40.737062],[175.592037,-40.737018],[175.593363,-40.737284],[175.593798,-40.737777],[175.594553,-40.737904],[175.595455,-40.737952],[175.595932,-40.738063],[175.596566,-40.7384],[175.597719,-40.738698],[175.598018,-40.739246],[175.598154,-40.740079],[175.598466,-40.74046],[175.598839,-40.740575],[175.599095,-40.741001],[175.600546,-40.7413],[175.601788,-40.741406],[175.602102,-40.742186],[175.602664,-40.742373],[175.602842,-40.74257],[175.603445,-40.742964],[175.603787,-40.743463],[175.604253,-40.743785],[175.604404,-40.744262],[175.605342,-40.744718],[175.605807,-40.744732],[175.606927,-40.744527],[175.607717,-40.744201],[175.60798,-40.744095],[175.608527,-40.743886],[175.609396,-40.744349],[175.610574,-40.744848],[175.613808,-40.746527],[175.620636,-40.750036],[175.624369,-40.751942],[175.62634,-40.752267],[175.627699,-40.752798],[175.627809,-40.752482],[175.628396,-40.75209],[175.628527,-40.750968],[175.62923,-40.75003],[175.629296,-40.74962],[175.629802,-40.748472],[175.630773,-40.748575],[175.631226,-40.748312],[175.631882,-40.747157],[175.632117,-40.746322],[175.632088,-40.746322],[175.630725,-40.74628],[175.629905,-40.74612],[175.629201,-40.745208],[175.628487,-40.745206],[175.627821,-40.745461],[175.627481,-40.743972],[175.627971,-40.742694],[175.628446,-40.742497],[175.653214,-40.742485],[175.658267,-40.728218],[175.659787,-40.7269],[175.661531,-40.725387],[175.661697,-40.725434],[175.675952,-40.729427],[175.676703,-40.728741],[175.677156,-40.728725],[175.679423,-40.72713],[175.681383,-40.725258],[175.682282,-40.72386],[175.682928,-40.723388],[175.683284,-40.72311],[175.683359,-40.723042],[175.683478,-40.722908],[175.683483,-40.722399],[175.683119,-40.722066],[175.68362,-40.721697],[175.682662,-40.720842],[175.682935,-40.720272],[175.682966,-40.720245],[175.683223,-40.720013],[175.683331,-40.719604],[175.683283,-40.718286],[175.682962,-40.716693],[175.68238,-40.716249],[175.682325,-40.716131],[175.682552,-40.716096],[175.68363,-40.716103],[175.686838,-40.716267],[175.689646,-40.716222],[175.691231,-40.716222],[175.693732,-40.716296],[175.693775,-40.712653],[175.693821,-40.711006],[175.693884,-40.704951],[175.690465,-40.704968],[175.690645,-40.69657],[175.712766,-40.696521],[175.713141,-40.696555],[175.720103,-40.696609],[175.720128,-40.696709],[175.720148,-40.696988],[175.733551,-40.696924],[175.734628,-40.69692],[175.734276,-40.697512],[175.734326,-40.697831],[175.73468,-40.698],[175.73548,-40.697617],[175.736472,-40.697383],[175.736926,-40.697129],[175.737176,-40.696915],[175.737566,-40.69702],[175.73786,-40.697047],[175.738245,-40.697364],[175.73825,-40.697336],[175.752411,-40.697418],[175.752671,-40.697857],[175.752913,-40.697961],[175.753692,-40.6985],[175.753965,-40.698918],[175.754375,-40.699003],[175.755481,-40.699926],[175.755804,-40.700388],[175.756102,-40.701038],[175.75604,-40.701396],[175.75609,-40.701735],[175.755917,-40.70234],[175.75608,-40.70266],[175.75608,-40.703024],[175.756253,-40.703319],[175.756284,-40.703644],[175.756562,-40.704352],[175.756718,-40.70518],[175.756968,-40.705525],[175.757095,-40.705663],[175.757151,-40.70574],[175.757036,-40.706089],[175.757088,-40.706657],[175.757103,-40.707066],[175.756833,-40.707526],[175.756451,-40.707685],[175.755994,-40.708156],[175.755604,-40.708412],[175.755117,-40.708554],[175.754758,-40.708702],[175.75454,-40.708878],[175.754548,-40.709139],[175.75419,-40.709293],[175.755828,-40.708918],[175.756354,-40.708798],[175.758751,-40.707062],[175.766776,-40.701251],[175.77011,-40.698888],[175.779162,-40.706056],[175.781192,-40.707643],[175.7811,-40.707853],[175.781355,-40.708152],[175.781392,-40.708698],[175.780642,-40.709618],[175.78034,-40.709981],[175.780281,-40.71056],[175.780353,-40.710813],[175.780417,-40.711323],[175.780342,-40.711404],[175.779828,-40.711752],[175.779164,-40.71204],[175.77856,-40.712519],[175.778311,-40.712817],[175.778124,-40.713332],[175.777935,-40.713519],[175.777637,-40.713618],[175.777338,-40.713688],[175.776957,-40.713808],[175.77678,-40.713984],[175.776679,-40.714253],[175.776681,-40.714548],[175.776586,-40.714662],[175.776175,-40.714817],[175.776014,-40.715022],[175.776035,-40.715245],[175.776244,-40.71572],[175.776195,-40.715821],[175.775853,-40.716178],[175.775457,-40.716597],[175.775142,-40.716796],[175.774973,-40.717011],[175.774966,-40.717327],[175.774857,-40.717479],[175.774562,-40.717669],[175.774545,-40.718048],[175.774479,-40.718485],[175.773933,-40.718961],[175.774486,-40.719286],[175.774881,-40.719519],[175.775039,-40.719578],[175.775533,-40.719564],[175.775983,-40.719513],[175.776189,-40.719532],[175.776504,-40.719678],[175.776385,-40.720719],[175.77645,-40.720908],[175.776577,-40.721144],[175.77648,-40.72136],[175.776416,-40.721644],[175.776479,-40.722042],[175.776526,-40.722223],[175.776679,-40.722349],[175.776801,-40.72237],[175.777212,-40.722155],[175.77741,-40.722156],[175.777538,-40.722264],[175.777556,-40.722496],[175.777622,-40.722896],[175.777757,-40.723194],[175.777973,-40.723454],[175.778075,-40.723647],[175.778191,-40.723818],[175.778538,-40.723914],[175.778775,-40.72392],[175.778923,-40.723804],[175.778997,-40.723578],[175.779125,-40.723428],[175.779275,-40.723363],[175.779528,-40.723312],[175.779989,-40.723648],[175.780289,-40.723671],[175.78032,-40.723712],[175.780572,-40.723747],[175.780757,-40.723596],[175.780909,-40.723342],[175.780959,-40.723171],[175.780928,-40.72291],[175.78073,-40.722585],[175.780827,-40.722492],[175.781053,-40.722528],[175.781353,-40.722715],[175.781798,-40.723026],[175.78194,-40.723282],[175.782035,-40.723663],[175.782117,-40.723744],[175.782376,-40.723884],[175.78273,-40.72391],[175.782808,-40.723901],[175.783383,-40.724141],[175.783557,-40.72437],[175.783694,-40.72465],[175.783893,-40.724814],[175.78466,-40.72528],[175.785281,-40.725188],[175.785657,-40.725053],[175.785909,-40.725212],[175.786185,-40.725414],[175.78657,-40.725369],[175.786908,-40.725259],[175.787121,-40.725259],[175.787712,-40.725355],[175.788103,-40.725569],[175.788378,-40.72567],[175.788624,-40.725791],[175.788807,-40.725838],[175.789049,-40.725856],[175.789337,-40.725723],[175.789696,-40.725629],[175.790717,-40.725601],[175.790746,-40.725597],[175.782363,-40.739093],[175.781788,-40.739185],[175.781542,-40.739526],[175.781426,-40.73985],[175.781476,-40.740198],[175.781315,-40.740725],[175.781159,-40.741026],[175.781074,-40.741506],[175.781003,-40.742263],[175.781061,-40.742716],[175.780887,-40.743273],[175.780561,-40.744064],[175.780032,-40.744276],[175.779638,-40.744258],[175.779143,-40.74426],[175.778588,-40.744189],[175.777954,-40.744358],[175.777391,-40.74454],[175.777066,-40.744838],[175.776855,-40.744967],[175.776609,-40.745132],[175.776089,-40.745275],[175.775992,-40.746018],[175.776011,-40.746455],[175.775852,-40.746848],[175.77596,-40.747682],[175.776385,-40.749148],[175.775636,-40.749628],[175.775385,-40.749993],[175.775579,-40.750396],[175.775349,-40.750843],[175.774924,-40.750979],[175.774442,-40.75141],[175.774068,-40.751586],[175.773513,-40.75167],[175.772192,-40.75178],[175.771837,-40.751836],[175.770314,-40.752353],[175.77004,-40.752396],[175.76914,-40.752651],[175.768546,-40.752802],[175.768165,-40.753],[175.767721,-40.753138],[175.767738,-40.753675],[175.767429,-40.754228],[175.766407,-40.755033],[175.766354,-40.755565],[175.766445,-40.756422],[175.766726,-40.756929],[175.766716,-40.757234],[175.766529,-40.75768],[175.766436,-40.758148],[175.766464,-40.758426],[175.766397,-40.759047],[175.766784,-40.759357],[175.766228,-40.76223],[175.764753,-40.768064],[175.785483,-40.772332],[175.785693,-40.771991],[175.785708,-40.771308],[175.786174,-40.770648],[175.786925,-40.770011],[175.787737,-40.768884],[175.788097,-40.768577],[175.788593,-40.768008],[175.789946,-40.769112],[175.796017,-40.773072],[175.796034,-40.773861],[175.797476,-40.7759],[175.798622,-40.776124],[175.800146,-40.776896],[175.800682,-40.777033],[175.801565,-40.777114],[175.8031,-40.776219],[175.803317,-40.775807],[175.804507,-40.776381],[175.80487,-40.776378],[175.805875,-40.777012],[175.806273,-40.777264],[175.81093,-40.779585],[175.81107,-40.779339],[175.813604,-40.77638],[175.813598,-40.776117],[175.81397,-40.775952],[175.81763,-40.771661],[175.819067,-40.76999],[175.819916,-40.768939],[175.820815,-40.767855],[175.8237,-40.764504],[175.825822,-40.762058],[175.825951,-40.761742],[175.826268,-40.761627],[175.826922,-40.760919],[175.826944,-40.761132],[175.827373,-40.761171],[175.827864,-40.761302],[175.827955,-40.761329],[175.828347,-40.761468],[175.828478,-40.761484],[175.828174,-40.762537],[175.828286,-40.763101],[175.827502,-40.764132],[175.827834,-40.764437],[175.827939,-40.764861],[175.82742,-40.765062],[175.827215,-40.765473],[175.828216,-40.766123],[175.829643,-40.765517],[175.829886,-40.765182],[175.829996,-40.764787],[175.830305,-40.764643],[175.830853,-40.764678],[175.831069,-40.764717],[175.831494,-40.764856],[175.831595,-40.764935],[175.831819,-40.765299],[175.832046,-40.765497],[175.832509,-40.766087],[175.832684,-40.766189],[175.8328,-40.766189],[175.832885,-40.766189],[175.833538,-40.765988],[175.834153,-40.765672],[175.83434,-40.765618],[175.834431,-40.765662],[175.834537,-40.765974],[175.834531,-40.766368],[175.834743,-40.766543],[175.835216,-40.766431],[175.835369,-40.76612],[175.835963,-40.765786],[175.836211,-40.765761],[175.836607,-40.766053],[175.837177,-40.766565],[175.837901,-40.767085],[175.837992,-40.767157],[175.838439,-40.767521],[175.83874,-40.767584],[175.838914,-40.767587],[175.839151,-40.767565],[175.839714,-40.767698],[175.840105,-40.76792],[175.840204,-40.768108],[175.840225,-40.768432],[175.840287,-40.768624],[175.840746,-40.768999],[175.841156,-40.769136],[175.842084,-40.769246],[175.842221,-40.769066],[175.849503,-40.761621],[175.850722,-40.762377],[175.862809,-40.769867],[175.866692,-40.769674],[175.871647,-40.777914],[175.885491,-40.773271],[175.909844,-40.750906],[175.9349,-40.766905],[175.943451,-40.740672],[175.947356,-40.74194],[175.949911,-40.742296],[175.95165,-40.743517],[175.955509,-40.743268],[175.957309,-40.740988],[175.958673,-40.739291],[175.958803,-40.739123],[175.959104,-40.738502],[175.960618,-40.736404],[175.964268,-40.738891],[175.96505,-40.73925],[175.96684,-40.739241],[175.967657,-40.738711],[175.968957,-40.738384],[175.972274,-40.73862],[175.975464,-40.73834],[175.975195,-40.737834],[175.974694,-40.737329],[175.974577,-40.737145],[175.97431,-40.737021],[175.974095,-40.736896],[175.973187,-40.736643],[175.973005,-40.736615],[175.97265,-40.736589],[175.97248,-40.736395],[175.972163,-40.736363],[175.971949,-40.736393],[175.971509,-40.736734],[175.971393,-40.736676],[175.971552,-40.736438],[175.971535,-40.736443],[175.971735,-40.736186],[175.971988,-40.736029],[175.972362,-40.735731],[175.972582,-40.735554],[175.97364,-40.73513],[175.974353,-40.73466],[175.97443,-40.734345],[175.976515,-40.73475],[175.977544,-40.73397],[175.978519,-40.732579],[175.978599,-40.731911],[175.978356,-40.731454],[175.978015,-40.730949],[175.97776,-40.730646],[175.977667,-40.730453],[175.977423,-40.73055],[175.976202,-40.730511],[175.97535,-40.730534],[175.975654,-40.730191],[175.977497,-40.729529],[175.977534,-40.728382],[175.977493,-40.728054],[175.977359,-40.727621],[175.977557,-40.727388],[175.977651,-40.72716],[175.977654,-40.726886],[175.977286,-40.726482],[175.977028,-40.726249],[175.977068,-40.72611],[175.976386,-40.725404],[175.974861,-40.724357],[175.9749,-40.724224],[175.974951,-40.724073],[175.974248,-40.72303],[175.97401,-40.72288],[175.974248,-40.722885],[175.974527,-40.722897],[175.977468,-40.723094],[175.978659,-40.722401],[175.979713,-40.7222],[175.981486,-40.722584],[175.988838,-40.725869],[175.990478,-40.725758],[175.991782,-40.724947],[175.992188,-40.724593],[175.992231,-40.724469],[175.992964,-40.723893],[175.99343,-40.723802],[175.99419,-40.724436],[175.995407,-40.725032],[176.010624,-40.713166],[176.010675,-40.713127],[176.012523,-40.716908],[176.015666,-40.709306],[176.017182,-40.705639],[176.02096,-40.706534],[176.023063,-40.70703],[176.024182,-40.707293],[176.022464,-40.711496],[176.039251,-40.714923],[176.043881,-40.715856],[176.043694,-40.71643],[176.044606,-40.715986],[176.046873,-40.714921],[176.04753,-40.714609],[176.048052,-40.715292],[176.052041,-40.716089],[176.055597,-40.7168],[176.056183,-40.715104],[176.056904,-40.713018],[176.056905,-40.713018],[176.059834,-40.713364],[176.059944,-40.713623],[176.060287,-40.714436],[176.060992,-40.714288],[176.061977,-40.714648],[176.062498,-40.714443],[176.064386,-40.714263],[176.065353,-40.714553],[176.067893,-40.714399],[176.069352,-40.714121],[176.069633,-40.714289],[176.070531,-40.714085],[176.07111,-40.71368],[176.072676,-40.713353],[176.073147,-40.713575],[176.074333,-40.713262],[176.074842,-40.713236],[176.075894,-40.713739],[176.076671,-40.713785],[176.077043,-40.71401],[176.078016,-40.714217],[176.078179,-40.714235],[176.079291,-40.714699],[176.079548,-40.715145],[176.080059,-40.715092],[176.081573,-40.715746],[176.081914,-40.715717],[176.08198,-40.715708],[176.081878,-40.715634],[176.081366,-40.714982],[176.080995,-40.712605],[176.08094,-40.712207],[176.080038,-40.709854],[176.07908,-40.707413],[176.082093,-40.708099],[176.082334,-40.708153],[176.087468,-40.693246],[176.087568,-40.692993],[176.089669,-40.686047],[176.092274,-40.679335],[176.093709,-40.675168],[176.093845,-40.675149],[176.094234,-40.675095],[176.095266,-40.674999],[176.096108,-40.675142],[176.096656,-40.674922],[176.097036,-40.675096],[176.097431,-40.675137],[176.097687,-40.674953],[176.098333,-40.675072],[176.098441,-40.675259],[176.099159,-40.675345],[176.099287,-40.675462],[176.100025,-40.675481],[176.100762,-40.675025],[176.101465,-40.674488],[176.10164,-40.674266],[176.101887,-40.674271],[176.102502,-40.673798],[176.103214,-40.672919],[176.103416,-40.672983],[176.103493,-40.673063],[176.104282,-40.673228],[176.104766,-40.673161],[176.105345,-40.673286],[176.105733,-40.673423],[176.106188,-40.673793],[176.106864,-40.673999],[176.107185,-40.674223],[176.107466,-40.675598],[176.107434,-40.674781],[176.107751,-40.676603],[176.107789,-40.676108],[176.107833,-40.676992],[176.108036,-40.677192],[176.108192,-40.677771],[176.108766,-40.677975],[176.10934,-40.678451],[176.109749,-40.678503],[176.110403,-40.678586],[176.110832,-40.678762],[176.111136,-40.679069],[176.11162,-40.679427],[176.112133,-40.679398],[176.112439,-40.679537],[176.112681,-40.679761],[176.112935,-40.679917],[176.11363,-40.680216],[176.113822,-40.680239],[176.113871,-40.679808],[176.114551,-40.679534],[176.114848,-40.679925],[176.115718,-40.680095],[176.116538,-40.680062],[176.117405,-40.680114],[176.117518,-40.680435],[176.118114,-40.680349],[176.118434,-40.680304],[176.11837,-40.679916],[176.118058,-40.679591],[176.117975,-40.678899],[176.118143,-40.67882],[176.118406,-40.679226],[176.118979,-40.679912],[176.120602,-40.680378],[176.120796,-40.680493],[176.120943,-40.680597],[176.120937,-40.681006],[176.121603,-40.681377],[176.122388,-40.681379],[176.122424,-40.681823],[176.122606,-40.682088],[176.123012,-40.681884],[176.12327,-40.681976],[176.123805,-40.68188],[176.12378,-40.681347],[176.124069,-40.681269],[176.124531,-40.681614],[176.125585,-40.68175],[176.126658,-40.682149],[176.127126,-40.682616],[176.12729,-40.682829],[176.128445,-40.682675],[176.128847,-40.682547],[176.129634,-40.682596],[176.129894,-40.682378],[176.131675,-40.682945],[176.132135,-40.683401],[176.132389,-40.683564],[176.132402,-40.683681],[176.132565,-40.683871],[176.132622,-40.683939],[176.132546,-40.684409],[176.133062,-40.684619],[176.134154,-40.684419],[176.135163,-40.684116],[176.135198,-40.683936],[176.135223,-40.683887],[176.135294,-40.683822],[176.135366,-40.683792],[176.135596,-40.683844],[176.135731,-40.683851],[176.136056,-40.683761],[176.136264,-40.68372],[176.13648,-40.683564],[176.136685,-40.683477],[176.136844,-40.68337],[176.136967,-40.682886],[176.13742,-40.682677],[176.137957,-40.682374],[176.138016,-40.682361],[176.138306,-40.682454],[176.138579,-40.682514],[176.139364,-40.682625],[176.139468,-40.68261],[176.139567,-40.682493],[176.139611,-40.68242],[176.139635,-40.682377],[176.139594,-40.682138],[176.139541,-40.682046],[176.139567,-40.681922],[176.139647,-40.681782],[176.139737,-40.681779],[176.139919,-40.681819],[176.140026,-40.681861],[176.140238,-40.681889],[176.140416,-40.681872],[176.14059,-40.681752],[176.140658,-40.681635],[176.140832,-40.681424],[176.140967,-40.68126],[176.141075,-40.681051],[176.14129,-40.680873],[176.14136,-40.68079],[176.141447,-40.68073],[176.141675,-40.68078],[176.141907,-40.680921],[176.142414,-40.681418],[176.142849,-40.681964],[176.143006,-40.682107],[176.143631,-40.682506],[176.143791,-40.682573],[176.14404,-40.68262],[176.144171,-40.682451],[176.144394,-40.682267],[176.144581,-40.681796],[176.14454,-40.681462],[176.144327,-40.681081],[176.144253,-40.680985],[176.144123,-40.680895],[176.143649,-40.680688],[176.143535,-40.680627],[176.14345,-40.680578],[176.143348,-40.680463],[176.143348,-40.680406],[176.14339,-40.68031],[176.143492,-40.680273],[176.143651,-40.680272],[176.143865,-40.680301],[176.144208,-40.680435],[176.14442,-40.680577],[176.144571,-40.680702],[176.144651,-40.680737],[176.14467,-40.680701],[176.144766,-40.680522],[176.144911,-40.680436],[176.145313,-40.680196],[176.146518,-40.680042],[176.147594,-40.679612],[176.147962,-40.679469],[176.14817,-40.679382],[176.147957,-40.678959],[176.148744,-40.678377],[176.149112,-40.678104],[176.150024,-40.67775],[176.151831,-40.67705],[176.152539,-40.676935],[176.153177,-40.676996],[176.157276,-40.67852],[176.15852,-40.679269],[176.158625,-40.679331],[176.15935,-40.6801],[176.160944,-40.680234],[176.160949,-40.680224],[176.16095,-40.680222],[176.161806,-40.681434],[176.162459,-40.6822],[176.163018,-40.681993],[176.163625,-40.681853],[176.164215,-40.681466],[176.164437,-40.680488],[176.166235,-40.679164],[176.166415,-40.678708],[176.166389,-40.677444],[176.166655,-40.676379],[176.16635,-40.675953],[176.166469,-40.674507],[176.167123,-40.67393],[176.168103,-40.673095],[176.171869,-40.672577],[176.172691,-40.671175],[176.17323,-40.670396],[176.174061,-40.669319],[176.174224,-40.668647],[176.175199,-40.668773],[176.177559,-40.669248],[176.178574,-40.669734],[176.17904,-40.669469],[176.180085,-40.669299],[176.180472,-40.669472],[176.180542,-40.669832],[176.180593,-40.669935],[176.18109,-40.669687],[176.181476,-40.669129],[176.18173,-40.668334],[176.18224,-40.668018],[176.182398,-40.667154],[176.182542,-40.667554],[176.182538,-40.666916],[176.182559,-40.666575],[176.182722,-40.666363],[176.182776,-40.666144],[176.183417,-40.665477],[176.183549,-40.665638],[176.183636,-40.665076],[176.183635,-40.664796],[176.183897,-40.664678],[176.200466,-40.672528],[176.208259,-40.662878],[176.211253,-40.65921],[176.211557,-40.659451],[176.216471,-40.663349],[176.221463,-40.667382],[176.225698,-40.670865],[176.237017,-40.6799],[176.237145,-40.680044],[176.237203,-40.680048],[176.237486,-40.680193],[176.237791,-40.680197],[176.237938,-40.680052],[176.238183,-40.679866],[176.238332,-40.67992],[176.238448,-40.67984],[176.238565,-40.679845],[176.238633,-40.679806],[176.238582,-40.67962],[176.238513,-40.679552],[176.238578,-40.679431],[176.238664,-40.679276],[176.238791,-40.679265],[176.238865,-40.679241],[176.238957,-40.679181],[176.239052,-40.678874],[176.239445,-40.678897],[176.239529,-40.67919],[176.239556,-40.67923],[176.239936,-40.679413],[176.240202,-40.679279],[176.240412,-40.679529],[176.240415,-40.679748],[176.240509,-40.679857],[176.240491,-40.679918],[176.240304,-40.680171],[176.240222,-40.680493],[176.240712,-40.680325],[176.240933,-40.680266],[176.241345,-40.68001],[176.241508,-40.679911],[176.24132,-40.679762],[176.241513,-40.679588],[176.241587,-40.679461],[176.241786,-40.679404],[176.242041,-40.679236],[176.242144,-40.679141],[176.242296,-40.67917],[176.242447,-40.679221],[176.242494,-40.679061],[176.242634,-40.678909],[176.242736,-40.678728],[176.242722,-40.678569],[176.24276,-40.678546],[176.242855,-40.678486],[176.243009,-40.678336],[176.243188,-40.678321],[176.243415,-40.678156],[176.24353,-40.67803],[176.243777,-40.677936],[176.243949,-40.677693],[176.243937,-40.677608],[176.243776,-40.677506],[176.243879,-40.677438],[176.243961,-40.677381],[176.244515,-40.67759],[176.245187,-40.677451],[176.245971,-40.677075],[176.246315,-40.677201],[176.246439,-40.677066],[176.246408,-40.676808],[176.24648,-40.676612],[176.246366,-40.676137],[176.247506,-40.675577],[176.248127,-40.675305],[176.248359,-40.675308],[176.248485,-40.675309],[176.24849,-40.675741],[176.248427,-40.676032],[176.248506,-40.676131],[176.248745,-40.676269],[176.248796,-40.676321],[176.249023,-40.676206],[176.2494,-40.676174],[176.249803,-40.676377],[176.250036,-40.676425],[176.250149,-40.676415],[176.250242,-40.676248],[176.250616,-40.675703],[176.250841,-40.675759],[176.251062,-40.675756],[176.251631,-40.675713],[176.251793,-40.675675],[176.252013,-40.675607],[176.252208,-40.675494],[176.252371,-40.675494],[176.252476,-40.675405],[176.25259,-40.675208],[176.252976,-40.675052],[176.25331,-40.675165],[176.253616,-40.675163],[176.253832,-40.675354],[176.253918,-40.675394],[176.254734,-40.675556],[176.254995,-40.675742],[176.256153,-40.675383],[176.256368,-40.675474],[176.256837,-40.675547],[176.256912,-40.675538],[176.257276,-40.675399],[176.25734,-40.675331],[176.257474,-40.675284],[176.257444,-40.675245],[176.257479,-40.675134],[176.257586,-40.674771],[176.257724,-40.674768],[176.258007,-40.674872],[176.258219,-40.674872],[176.258496,-40.675043],[176.258293,-40.675316],[176.257995,-40.676363],[176.258244,-40.676684],[176.258648,-40.676854],[176.25868,-40.677116],[176.258746,-40.677164],[176.259212,-40.677349],[176.259476,-40.67729],[176.259613,-40.677311],[176.259705,-40.677326],[176.259619,-40.677815],[176.259804,-40.678317],[176.259948,-40.678314],[176.260597,-40.67842],[176.260726,-40.678487],[176.260785,-40.678528],[176.260745,-40.679005],[176.260856,-40.679112],[176.261109,-40.6792],[176.261666,-40.679539],[176.26174,-40.679563],[176.262806,-40.679093],[176.264553,-40.678726],[176.265205,-40.678536],[176.265896,-40.678296],[176.266424,-40.678161],[176.26674,-40.678117],[176.267076,-40.678107],[176.267621,-40.67816],[176.267945,-40.67822],[176.268178,-40.678284],[176.268484,-40.678397],[176.268691,-40.678497],[176.268964,-40.678659],[176.269199,-40.678832],[176.269381,-40.678997],[176.269626,-40.679323],[176.269774,-40.67947],[176.269961,-40.679584],[176.27018,-40.679664],[176.270418,-40.679718],[176.271084,-40.679824],[176.271574,-40.679885],[176.272551,-40.679943],[176.273332,-40.679958],[176.27368,-40.679943],[176.273819,-40.679977],[176.273883,-40.680014],[176.27399,-40.680115],[176.274079,-40.680261],[176.274113,-40.680385],[176.274188,-40.680941],[176.274244,-40.681125],[176.274293,-40.681216],[176.274558,-40.681534],[176.275156,-40.682352],[176.275381,-40.682555],[176.275659,-40.682736],[176.275662,-40.682739],[176.275794,-40.682874],[176.275867,-40.682899],[176.276007,-40.682912],[176.276216,-40.682905],[176.276392,-40.682853],[176.276479,-40.682805],[176.276644,-40.682799],[176.277726,-40.68315],[176.277833,-40.683203],[176.277939,-40.683234],[176.278164,-40.683249],[176.278682,-40.683175],[176.278818,-40.683216],[176.279341,-40.683484],[176.279721,-40.683608],[176.280073,-40.683768],[176.280209,-40.683798],[176.280439,-40.683916],[176.28065,-40.684217],[176.280851,-40.684348],[176.281563,-40.684551],[176.281894,-40.684756],[176.28219,-40.684868],[176.28226,-40.685133],[176.282338,-40.685298],[176.282461,-40.685675],[176.282434,-40.685833],[176.282312,-40.686085],[176.282185,-40.686224],[176.281864,-40.686492],[176.281362,-40.687026],[176.281278,-40.687402],[176.281293,-40.687703],[176.281435,-40.688032],[176.281471,-40.688605],[176.281377,-40.688827],[176.281369,-40.688945],[176.281455,-40.689129],[176.281445,-40.689216],[176.281592,-40.689428],[176.281614,-40.68953],[176.281665,-40.689642],[176.281728,-40.689686],[176.281929,-40.690024],[176.281952,-40.690199],[176.28194,-40.690276],[176.281983,-40.690411],[176.281904,-40.690639],[176.281919,-40.69089],[176.282042,-40.691205],[176.282275,-40.691608],[176.282403,-40.691741],[176.28247,-40.691864],[176.282609,-40.69194],[176.282705,-40.692051],[176.282906,-40.692147],[176.282984,-40.692201],[176.283051,-40.692599],[176.28312,-40.692657],[176.283302,-40.69272],[176.283353,-40.692876],[176.283383,-40.693133],[176.283404,-40.693235],[176.283425,-40.693296],[176.283457,-40.693354],[176.283475,-40.693483],[176.283475,-40.693693],[176.283425,-40.693868],[176.283422,-40.694021],[176.283342,-40.694231],[176.283191,-40.694501],[176.283289,-40.694658],[176.283386,-40.694769],[176.283455,-40.694926],[176.283519,-40.695004],[176.283629,-40.695092],[176.283657,-40.695153],[176.28368,-40.695204],[176.283707,-40.695397],[176.283668,-40.695774],[176.283674,-40.69589],[176.283742,-40.696013],[176.283942,-40.696109],[176.284184,-40.696409],[176.284191,-40.696523],[176.284343,-40.696826],[176.284363,-40.696905],[176.284585,-40.697126],[176.28471,-40.697213],[176.284743,-40.697258],[176.284755,-40.697475],[176.284773,-40.697531],[176.28487,-40.697642],[176.285471,-40.697942],[176.286075,-40.698024],[176.286301,-40.698039],[176.286881,-40.697962],[176.287509,-40.69793],[176.288686,-40.69781],[176.290118,-40.697225],[176.290919,-40.696948],[176.291642,-40.696674],[176.291786,-40.696601],[176.292596,-40.696312],[176.293703,-40.695717],[176.293919,-40.695573],[176.294331,-40.695411],[176.294552,-40.695346],[176.295176,-40.695234],[176.295715,-40.695204],[176.296467,-40.695248],[176.296711,-40.695308],[176.296893,-40.695336],[176.297385,-40.695297],[176.297671,-40.69531],[176.297883,-40.695349],[176.298049,-40.695354],[176.29881,-40.6955],[176.299006,-40.695516],[176.299186,-40.695498],[176.299719,-40.695366],[176.299879,-40.695281],[176.300119,-40.695261],[176.300269,-40.695267],[176.300513,-40.695328],[176.300988,-40.695361],[176.301438,-40.695467],[176.3015,-40.695511],[176.301561,-40.69552],[176.301686,-40.695596],[176.301994,-40.695734],[176.302359,-40.695812],[176.302529,-40.695886],[176.302666,-40.695916],[176.302943,-40.696021],[176.303488,-40.696093],[176.304233,-40.695976],[176.304707,-40.695857],[176.305178,-40.69567],[176.305841,-40.695441],[176.306252,-40.695267],[176.30665,-40.695127],[176.30689,-40.695118],[176.307571,-40.695209],[176.308112,-40.695201],[176.308882,-40.695277],[176.30945,-40.695222],[176.309508,-40.695197],[176.309942,-40.695159],[176.310262,-40.694988],[176.310618,-40.694895],[176.310749,-40.694822],[176.311017,-40.694527],[176.311734,-40.693973],[176.31204,-40.693863],[176.312175,-40.693846],[176.312354,-40.693849],[176.312591,-40.693671],[176.312826,-40.693583],[176.313226,-40.693501],[176.313792,-40.693446],[176.314012,-40.693358],[176.314562,-40.693053],[176.314918,-40.693006],[176.316405,-40.693091],[176.317178,-40.693247],[176.317297,-40.693243],[176.317583,-40.693267],[176.317811,-40.693328],[176.319522,-40.693386],[176.319686,-40.693369],[176.320366,-40.693422],[176.321111,-40.693605],[176.321715,-40.693678],[176.322574,-40.694016],[176.322856,-40.694213],[176.323119,-40.694353],[176.323166,-40.694398],[176.323627,-40.694588],[176.324206,-40.694764],[176.324523,-40.694799],[176.324766,-40.694848],[176.32493,-40.694843],[176.325323,-40.694899],[176.325398,-40.694896],[176.325642,-40.694979],[176.32622,-40.695394],[176.326374,-40.695469],[176.326736,-40.695766],[176.326827,-40.695786],[176.326904,-40.695829],[176.327057,-40.695869],[176.327118,-40.695901],[176.327436,-40.695959],[176.32767,-40.696111],[176.328362,-40.696406],[176.330503,-40.697121],[176.330626,-40.697185],[176.330976,-40.697276],[176.331267,-40.697381],[176.331617,-40.697471],[176.33197,-40.697614],[176.332395,-40.69773],[176.332763,-40.697901]]}]}}]}